GLOBALSTAR M084         
1 38040U 11080A   25274.20214546 -.00000089  00000+0  84271-4 0  9992
2 38040  51.9997  85.7244 0000478  98.1531  72.8547 12.62269227636055
GLOBALSTAR M080         
1 38041U 11080B   25273.74306440 -.00000094  00000+0  52726-4 0  9992
2 38041  52.0047  88.7515 0001179  74.0713 299.0169 12.62269425636123
GLOBALSTAR M082         
1 38042U 11080C   25273.78824766 -.00000100  00000+0  19528-4 0  9994
2 38042  52.0091  44.0847 0001075  87.7900  61.5547 12.62268780636833
GLOBALSTAR M092         
1 38043U 11080D   25274.08220847 -.00000082  00000+0  12007-3 0  9992
2 38043  52.0065 133.5765 0000800  78.9797  85.8313 12.62266399635326
GLOBALSTAR M090         
1 38044U 11080E   25274.05719431 -.00000098  00000+0  32541-4 0  9995
2 38044  52.0142  37.1386 0000858 106.4925  64.9365 12.62262491636981
GLOBALSTAR M086         
1 38045U 11080F   25274.08245705 -.00000083  00000+0  11558-3 0  9995
2 38045  51.9919  37.4130 0001170 161.7770   9.7710 12.62277666636938
GLOBALSTAR M097         
1 39072U 13005A   25274.15128154 -.00000067  00000+0  20381-3 0  9997
2 39072  52.0056 311.8677 0000522 112.5591 247.5331 12.62266080584192
GLOBALSTAR M093         
1 39073U 13005B   25273.41259706 -.00000074  00000+0  16459-3 0  9993
2 39073  52.0112 307.3645 0000703 115.7263 244.3676 12.62264770584059
